{
  "type": "FeatureCollection",
  "features": [
    {
      "type": "Feature",
      "properties": {
        "norad_id": 30750,
        "name": "FENGYUN 1C DEB",
        "group": "fengyun-1c-debris",
        "lat": 32.344626191503245,
        "lon": 66.48591163345588,
        "alt_km": 771.2030643647304,
        "timestamp": "2025-12-23T09:49:07.361742+00:00",
        "meta_object_name": "FENGYUN 1C DEB",
        "meta_object_id": "1999-025ATL",
        "meta_epoch": "2025-12-22T03:33:05.694048",
        "meta_mean_motion": 14.2867858,
        "meta_eccentricity": 0.00396054,
        "meta_inclination": 98.9199,
        "meta_ra_of_asc_node": 70.9048,
        "meta_arg_of_pericenter": 72.8062,
        "meta_mean_anomaly": 317.6835,
        "meta_ephemeris_type": 0,
        "meta_classification_type": "U",
        "meta_norad_cat_id": 30750,
        "meta_element_set_no": 999,
        "meta_rev_at_epoch": 96916,
        "meta_bstar": 0.0016644043,
        "meta_mean_motion_dot": 4.175e-05,
        "meta_mean_motion_ddot": 0,
        "tle_line1": "1 30750U 99025ATL 25356.14798257  .00004175  00000+0  16644-2 0  9993",
        "tle_line2": "2 30750  98.9199  70.9048 0039605  72.8062 317.6835 14.28678580969161"
      },
      "geometry": {
        "type": "Point",
        "coordinates": [
          66.48591163345588,
          32.344626191503245
        ]
      }
    },
    {
      "type": "Feature",
      "properties": {
        "norad_id": 30751,
        "name": "FENGYUN 1C DEB",
        "group": "fengyun-1c-debris",
        "lat": -29.304991329698034,
        "lon": 61.55245260973798,
        "alt_km": 850.8244457797873,
        "timestamp": "2025-12-23T09:49:07.361752+00:00",
        "meta_object_name": "FENGYUN 1C DEB",
        "meta_object_id": "1999-025ATM",
        "meta_epoch": "2025-12-22T17:35:42.669600",
        "meta_mean_motion": 14.15252921,
        "meta_eccentricity": 0.00514269,
        "meta_inclination": 98.8538,
        "meta_ra_of_asc_node": 55.8625,
        "meta_arg_of_pericenter": 68.1112,
        "meta_mean_anomaly": 60.7492,
        "meta_ephemeris_type": 0,
        "meta_classification_type": "U",
        "meta_norad_cat_id": 30751,
        "meta_element_set_no": 999,
        "meta_rev_at_epoch": 96417,
        "meta_bstar": 0.0012827626,
        "meta_mean_motion_dot": 2.483e-05,
        "meta_mean_motion_ddot": 0,
        "tle_line1": "1 30751U 99025ATM 25356.73313275  .00002483  00000+0  12828-2 0  9992",
        "tle_line2": "2 30751  98.8538  55.8625 0051426  68.1112  60.7492 14.15252921964174"
      },
      "geometry": {
        "type": "Point",
        "coordinates": [
          61.55245260973798,
          -29.304991329698034
        ]
      }
    },
    {
      "type": "Feature",
      "properties": {
        "norad_id": 30753,
        "name": "FENGYUN 1C DEB",
        "group": "fengyun-1c-debris",
        "lat": 33.7720990549093,
        "lon": 29.870590393870877,
        "alt_km": 834.1395377951794,
        "timestamp": "2025-12-23T09:49:07.361762+00:00",
        "meta_object_name": "FENGYUN 1C DEB",
        "meta_object_id": "1999-025ATP",
        "meta_epoch": "2025-12-22T21:45:34.063200",
        "meta_mean_motion": 14.12686756,
        "meta_eccentricity": 0.00552428,
        "meta_inclination": 98.8066,
        "meta_ra_of_asc_node": 35.3272,
        "meta_arg_of_pericenter": 325.7398,
        "meta_mean_anomaly": 34.0215,
        "meta_ephemeris_type": 0,
        "meta_classification_type": "U",
        "meta_norad_cat_id": 30753,
        "meta_element_set_no": 999,
        "meta_rev_at_epoch": 96495,
        "meta_bstar": 0.0010941532,
        "meta_mean_motion_dot": 2.014e-05,
        "meta_mean_motion_ddot": 0,
        "tle_line1": "1 30753U 99025ATP 25356.90664425  .00002014  00000+0  10942-2 0  9994",
        "tle_line2": "2 30753  98.8066  35.3272 0055242 325.7398  34.0215 14.12686756964958"
      },
      "geometry": {
        "type": "Point",
        "coordinates": [
          29.870590393870877,
          33.7720990549093
        ]
      }
    },
    {
      "type": "Feature",
      "properties": {
        "norad_id": 30755,
        "name": "FENGYUN 1C DEB",
        "group": "fengyun-1c-debris",
        "lat": -43.90203779554048,
        "lon": -0.2827529965846204,
        "alt_km": 726.957220280583,
        "timestamp": "2025-12-23T09:49:07.361772+00:00",
        "meta_object_name": "FENGYUN 1C DEB",
        "meta_object_id": "1999-025ATR",
        "meta_epoch": "2025-12-22T11:28:21.779904",
        "meta_mean_motion": 14.44994146,
        "meta_eccentricity": 0.01508879,
        "meta_inclination": 98.2589,
        "meta_ra_of_asc_node": 350.7763,
        "meta_arg_of_pericenter": 239.2637,
        "meta_mean_anomaly": 273.9989,
        "meta_ephemeris_type": 0,
        "meta_classification_type": "U",
        "meta_norad_cat_id": 30755,
        "meta_element_set_no": 999,
        "meta_rev_at_epoch": 98585,
        "meta_bstar": 0.00052736878,
        "meta_mean_motion_dot": 2.066e-05,
        "meta_mean_motion_ddot": 0,
        "tle_line1": "1 30755U 99025ATR 25356.47802986  .00002066  00000+0  52737-3 0  9990",
        "tle_line2": "2 30755  98.2589 350.7763 0150887 239.2637 273.9989 14.44994146985853"
      },
      "geometry": {
        "type": "Point",
        "coordinates": [
          -0.2827529965846204,
          -43.90203779554048
        ]
      }
    },
    {
      "type": "Feature",
      "properties": {
        "norad_id": 30756,
        "name": "FENGYUN 1C DEB",
        "group": "fengyun-1c-debris",
        "lat": -15.500819507853503,
        "lon": 67.47143626279168,
        "alt_km": 808.7930708211425,
        "timestamp": "2025-12-23T09:49:07.361784+00:00",
        "meta_object_name": "FENGYUN 1C DEB",
        "meta_object_id": "1999-025ATS",
        "meta_epoch": "2025-12-22T03:33:29.512800",
        "meta_mean_motion": 14.18327964,
        "meta_eccentricity": 0.00718027,
        "meta_inclination": 98.9905,
        "meta_ra_of_asc_node": 63.6779,
        "meta_arg_of_pericenter": 288.9357,
        "meta_mean_anomaly": 100.4536,
        "meta_ephemeris_type": 0,
        "meta_classification_type": "U",
        "meta_norad_cat_id": 30756,
        "meta_element_set_no": 999,
        "meta_rev_at_epoch": 96538,
        "meta_bstar": 0.0013601526,
        "meta_mean_motion_dot": 2.829e-05,
        "meta_mean_motion_ddot": 0,
        "tle_line1": "1 30756U 99025ATS 25356.14825825  .00002829  00000+0  13602-2 0  9996",
        "tle_line2": "2 30756  98.9905  63.6779 0071802 288.9357 100.4536 14.18327964965386"
      },
      "geometry": {
        "type": "Point",
        "coordinates": [
          67.47143626279168,
          -15.500819507853503
        ]
      }
    },
    {
      "type": "Feature",
      "properties": {
        "norad_id": 30758,
        "name": "FENGYUN 1C DEB",
        "group": "fengyun-1c-debris",
        "lat": -28.09564314299218,
        "lon": 121.11855030090346,
        "alt_km": 813.033959789278,
        "timestamp": "2025-12-23T09:49:07.361816+00:00",
        "meta_object_name": "FENGYUN 1C DEB",
        "meta_object_id": "1999-025ATU",
        "meta_epoch": "2025-12-22T06:59:20.757408",
        "meta_mean_motion": 14.17145281,
        "meta_eccentricity": 0.00384312,
        "meta_inclination": 99.0186,
        "meta_ra_of_asc_node": 115.1214,
        "meta_arg_of_pericenter": 335.2434,
        "meta_mean_anomaly": 56.3375,
        "meta_ephemeris_type": 0,
        "meta_classification_type": "U",
        "meta_norad_cat_id": 30758,
        "meta_element_set_no": 999,
        "meta_rev_at_epoch": 96626,
        "meta_bstar": 0.00086248867,
        "meta_mean_motion_dot": 1.705e-05,
        "meta_mean_motion_ddot": 0,
        "tle_line1": "1 30758U 99025ATU 25356.29121247  .00001705  00000+0  86249-3 0  9991",
        "tle_line2": "2 30758  99.0186 115.1214 0038431 335.2434  56.3375 14.17145281966268"
      },
      "geometry": {
        "type": "Point",
        "coordinates": [
          121.11855030090346,
          -28.09564314299218
        ]
      }
    },
    {
      "type": "Feature",
      "properties": {
        "norad_id": 30759,
        "name": "FENGYUN 1C DEB",
        "group": "fengyun-1c-debris",
        "lat": 27.925360162850392,
        "lon": 101.33816560903483,
        "alt_km": 711.1321343873224,
        "timestamp": "2025-12-23T09:49:07.361828+00:00",
        "meta_object_name": "FENGYUN 1C DEB",
        "meta_object_id": "1999-025ATV",
        "meta_epoch": "2025-12-22T21:03:46.534752",
        "meta_mean_motion": 14.54698225,
        "meta_eccentricity": 0.00086251,
        "meta_inclination": 99.2575,
        "meta_ra_of_asc_node": 105.7098,
        "meta_arg_of_pericenter": 139.7983,
        "meta_mean_anomaly": 346.9311,
        "meta_ephemeris_type": 0,
        "meta_classification_type": "U",
        "meta_norad_cat_id": 30759,
        "meta_element_set_no": 999,
        "meta_rev_at_epoch": 97802,
        "meta_bstar": 0.0025188407,
        "meta_mean_motion_dot": 0.00010745,
        "meta_mean_motion_ddot": 0,
        "tle_line1": "1 30759U 99025ATV 25356.87762193  .00010745  00000+0  25188-2 0  9995",
        "tle_line2": "2 30759  99.2575 105.7098 0008625 139.7983 346.9311 14.54698225978023"
      },
      "geometry": {
        "type": "Point",
        "coordinates": [
          101.33816560903483,
          27.925360162850392
        ]
      }
    }
  ]
}